{
  "type": "FeatureCollection",
  "name": "Campaign: Solimoes Wetland Restoration",
  "crs": { "type": "name", "properties": { "name": "urn:ogc:def:crs:OGC:1.3:CRS84" } },
  "features": [
    {
      "type": "Feature",
      "id": "solimoes-1",
      "properties": {
        "id": "solimoes-1",
        "name": "Solimoes Wetland Restoration",
        "campaign": "Solimoes Wetland Restoration",
        "status": "active",
        "partner": "Wetlands International",
        "acreage": 22000,
        "watershed": "Solimoes Watershed",
        "projectType": "Wetland Restoration"
      },
      "geometry": {
        "type": "Polygon",
        "coordinates": [
          [
            [-60.0800, -3.1400],
            [-60.0200, -3.1400],
            [-60.0200, -3.1800],
            [-60.0500, -3.2000],
            [-60.0800, -3.1900],
            [-60.0800, -3.1400]
          ]
        ]
      }
    }
  ]
}
