{
  "type": "FeatureCollection",
  "name": "Campaign: Rio Negro Conservation",
  "crs": { "type": "name", "properties": { "name": "urn:ogc:def:crs:OGC:1.3:CRS84" } },
  "features": [
    {
      "type": "Feature",
      "id": "rio-negro-1",
      "properties": {
        "id": "rio-negro-1",
        "name": "Rio Negro Conservation",
        "campaign": "Rio Negro Conservation",
        "status": "active",
        "partner": "Amazon River Foundation",
        "acreage": 18500,
        "watershed": "Rio Negro Basin",
        "projectType": "River Conservation"
      },
      "geometry": {
        "type": "Polygon",
        "coordinates": [
          [
            [-60.1200, -3.0500],
            [-60.0600, -3.0500],
            [-60.0600, -3.0900],
            [-60.0800, -3.1100],
            [-60.1200, -3.1100],
            [-60.1200, -3.0500]
          ]
        ]
      }
    }
  ]
}
