{
  "type": "FeatureCollection",
  "name": "Campaign: Encontro das Aguas Reserve",
  "crs": { "type": "name", "properties": { "name": "urn:ogc:def:crs:OGC:1.3:CRS84" } },
  "features": [
    {
      "type": "Feature",
      "id": "encontro-1",
      "properties": {
        "id": "encontro-1",
        "name": "Encontro das Aguas Reserve",
        "campaign": "Encontro das Aguas Reserve",
        "status": "active",
        "partner": "Meeting of the Waters Foundation",
        "acreage": 31000,
        "watershed": "Negro-Solimoes Confluence",
        "projectType": "Ecological Reserve"
      },
      "geometry": {
        "type": "Polygon",
        "coordinates": [
          [
            [-59.9800, -3.0800],
            [-59.9200, -3.0800],
            [-59.9000, -3.1100],
            [-59.9200, -3.1400],
            [-59.9600, -3.1400],
            [-59.9800, -3.1200],
            [-59.9800, -3.0800]
          ]
        ]
      }
    }
  ]
}
