{
  "type": "FeatureCollection",
  "name": "Campaign: Puraquequara Lake Protection",
  "crs": { "type": "name", "properties": { "name": "urn:ogc:def:crs:OGC:1.3:CRS84" } },
  "features": [
    {
      "type": "Feature",
      "id": "puraquequara-1",
      "properties": {
        "id": "puraquequara-1",
        "name": "Puraquequara Lake Protection",
        "campaign": "Puraquequara Lake Protection",
        "status": "planning",
        "partner": "Manaus Environmental Agency",
        "acreage": 7500,
        "watershed": "Puraquequara Lake System",
        "projectType": "Lake Protection"
      },
      "geometry": {
        "type": "Polygon",
        "coordinates": [
          [
            [-59.9200, -3.0200],
            [-59.8800, -3.0200],
            [-59.8700, -3.0500],
            [-59.8900, -3.0700],
            [-59.9200, -3.0600],
            [-59.9200, -3.0200]
          ]
        ]
      }
    }
  ]
}
