{
  "type": "FeatureCollection",
  "name": "Campaign: Anavilhanas Archipelago Monitoring",
  "crs": { "type": "name", "properties": { "name": "urn:ogc:def:crs:OGC:1.3:CRS84" } },
  "features": [
    {
      "type": "Feature",
      "id": "anavilhanas-1",
      "properties": {
        "id": "anavilhanas-1",
        "name": "Anavilhanas Archipelago Monitoring",
        "campaign": "Anavilhanas Archipelago Monitoring",
        "status": "active",
        "partner": "ICMBio Brazil",
        "acreage": 42000,
        "watershed": "Rio Negro Archipelago",
        "projectType": "Environmental Monitoring"
      },
      "geometry": {
        "type": "Polygon",
        "coordinates": [
          [
            [-60.1800, -2.9600],
            [-60.1200, -2.9400],
            [-60.0800, -2.9700],
            [-60.0900, -3.0000],
            [-60.1400, -3.0100],
            [-60.1800, -2.9900],
            [-60.1800, -2.9600]
          ]
        ]
      }
    }
  ]
}
